ONEWEB-0564             
1 55801U 23029F   25326.92466205  .00000083  00000+0  17336-3 0  9990
2 55801  87.9178 315.6070 0001539  95.2673 264.8636 13.20773294133924
ONEWEB-0638             
1 55802U 23029G   25327.03776109 -.00000093  00000+0 -28602-3 0  9992
2 55802  87.8977 330.8411 0001827 106.1901 253.9430 13.14502471132318
ONEWEB-0639             
1 55803U 23029H   25327.11349666 -.00000006  00000+0 -47571-4 0  9997
2 55803  87.9198 345.9879 0002935  88.2323 271.9146 13.19727302131724
ONEWEB-0640             
1 55804U 23029J   25326.97114796 -.00000224  00000+0 -63956-3 0  9991
2 55804  87.8978 330.8407 0002297 105.2190 254.9194 13.14502279132323
ONEWEB-0641             
1 55805U 23029K   25327.10874847 -.00000329  00000+0 -85482-3 0  9992
2 55805  87.9209 345.9677 0001940  89.9058 270.2297 13.19725261131735
ONEWEB-0642             
1 55806U 23029L   25327.10401321 -.00000079  00000+0 -22863-3 0  9992
2 55806  87.9199 345.9933 0002660  82.8280 277.3155 13.19727669131722
ONEWEB-0643             
1 55807U 23029M   25327.09325916  .00000175  00000+0  43828-3 0  9995
2 55807  87.8988 330.8019 0002350  76.6723 283.4669 13.14501667132312
ONEWEB-0644             
1 55808U 23029N   25327.09929319 -.00001199  00000+0 -30290-2 0  9990
2 55808  87.9195 346.0039 0002157  86.6253 273.5126 13.19718467131724
